{"type": "FeatureCollection", "features": [ {"type": "Feature", "properties": {"norad_id": 28649, "name": "IRS-P5 (CARTOSAT-1)", "group": "resource", "lat": -55.445262107354964, "lon": 20.276691545407754, "alt_km": 604.0661623318038, "timestamp": "2025-12-08T13:49:31.449754+00:00", "meta": {"OBJECT_NAME": "IRS-P5 (CARTOSAT-1)", "OBJECT_ID": "2005-017A", "EPOCH": "2025-12-08T01:11:11.260896", "MEAN_MOTION": 14.90380726, "ECCENTRICITY": 0.00015361, "INCLINATION": 97.5494, "RA_OF_ASC_NODE": 8.6707, "ARG_OF_PERICENTER": 49.3717, "MEAN_ANOMALY": 310.7635, "EPHEMERIS_TYPE": 0, "CLASSIFICATION_TYPE": "U", "NORAD_CAT_ID": 28649, "ELEMENT_SET_NO": 999, "REV_AT_EPOCH": 11534, "BSTAR": 0.00023277771, "MEAN_MOTION_DOT": 2.214e-05, "MEAN_MOTION_DDOT": 0}, "tle": {"line1": "1 28649U 05017A   25342.04943589  .00002214  00000+0  23278-3 0  9993", "line2": "2 28649  97.5494   8.6707 0001536  49.3717 310.7635 14.90380726115342"}}, "geometry": {"type": "Point", "coordinates": [20.276691545407754, -55.445262107354964]}}, {"type": "Feature", "properties": {"norad_id": 28893, "name": "SINAH 1", "group": "resource", "lat": -27.095825767791087, "lon": 115.38453256717895, "alt_km": 696.8270342013975, "timestamp": "2025-12-08T13:49:31.449765+00:00", "meta": {"OBJECT_NAME": "SINAH 1", "OBJECT_ID": "2005-043D", "EPOCH": "2025-12-08T07:23:21.051456", "MEAN_MOTION": 14.63955314, "ECCENTRICITY": 0.00151067, "INCLINATION": 98.2601, "RA_OF_ASC_NODE": 110.8533, "ARG_OF_PERICENTER": 150.1912, "MEAN_ANOMALY": 210.0154, "EPHEMERIS_TYPE": 0, "CLASSIFICATION_TYPE": "U", "NORAD_CAT_ID": 28893, "ELEMENT_SET_NO": 999, "REV_AT_EPOCH": 7259, "BSTAR": 0.0002035551, "MEAN_MOTION_DOT": 1.018e-05, "MEAN_MOTION_DDOT": 0}, "tle": {"line1": "1 28893U 05043D   25342.30788254  .00001018  00000+0  20356-3 0  9993", "line2": "2 28893  98.2601 110.8533 0015106 150.1912 210.0154 14.63955314 72598"}}, "geometry": {"type": "Point", "coordinates": [115.38453256717895, -27.095825767791087]}}, {"type": "Feature", "properties": {"norad_id": 29079, "name": "EROS B", "group": "resource", "lat": -53.30932514666153, "lon": -91.01726613957736, "alt_km": 374.7304728069821, "timestamp": "2025-12-08T13:49:31.449776+00:00", "meta": {"OBJECT_NAME": "EROS B", "OBJECT_ID": "2006-014A", "EPOCH": "2025-12-08T06:41:51.834624", "MEAN_MOTION": 15.66515807, "ECCENTRICITY": 0.00016937, "INCLINATION": 97.3484, "RA_OF_ASC_NODE": 98.6463, "ARG_OF_PERICENTER": 271.235, "MEAN_ANOMALY": 88.8717, "EPHEMERIS_TYPE": 0, "CLASSIFICATION_TYPE": "U", "NORAD_CAT_ID": 29079, "ELEMENT_SET_NO": 999, "REV_AT_EPOCH": 9010, "BSTAR": 0.0015275183, "MEAN_MOTION_DOT": 0.00161815, "MEAN_MOTION_DDOT": 0}, "tle": {"line1": "1 29079U 06014A   25342.27907216  .00161815  00000+0  15275-2 0  9991", "line2": "2 29079  97.3484  98.6463 0001693 271.2350  88.8717 15.66515807 90102"}}, "geometry": {"type": "Point", "coordinates": [-91.01726613957736, -53.30932514666153]}}, {"type": "Feature", "properties": {"norad_id": 29228, "name": "RESURS-DK 1", "group": "resource", "lat": -60.09498283852671, "lon": -27.941857530801087, "alt_km": 531.1425780848131, "timestamp": "2025-12-08T13:49:31.449787+00:00", "meta": {"OBJECT_NAME": "RESURS-DK 1", "OBJECT_ID": "2006-021A", "EPOCH": "2025-12-08T07:58:18.843456", "MEAN_MOTION": 15.12123711, "ECCENTRICITY": 0.00076452, "INCLINATION": 69.9342, "RA_OF_ASC_NODE": 113.2282, "ARG_OF_PERICENTER": 262.577, "MEAN_ANOMALY": 97.4527, "EPHEMERIS_TYPE": 0, "CLASSIFICATION_TYPE": "U", "NORAD_CAT_ID": 29228, "ELEMENT_SET_NO": 999, "REV_AT_EPOCH": 7371, "BSTAR": 0.00025855586, "MEAN_MOTION_DOT": 4.362e-05, "MEAN_MOTION_DDOT": 0}, "tle": {"line1": "1 29228U 06021A   25342.33216254  .00004362  00000+0  25856-3 0  9997", "line2": "2 29228  69.9342 113.2282 0007645 262.5770  97.4527 15.12123711 73714"}}, "geometry": {"type": "Point", "coordinates": [-27.941857530801087, -60.09498283852671]}}, {"type": "Feature", "properties": {"norad_id": 29268, "name": "ARIRANG-2 (KOMPSAT-2)", "group": "resource", "lat": -49.66855786324762, "lon": -18.071930008582896, "alt_km": 686.0720660225516, "timestamp": "2025-12-08T13:49:31.449798+00:00", "meta": {"OBJECT_NAME": "ARIRANG-2 (KOMPSAT-2)", "OBJECT_ID": "2006-031A", "EPOCH": "2025-12-08T06:27:45.695232", "MEAN_MOTION": 14.64488035, "ECCENTRICITY": 0.00136938, "INCLINATION": 97.827, "RA_OF_ASC_NODE": 170.9604, "ARG_OF_PERICENTER": 323.9849, "MEAN_ANOMALY": 89.9798, "EPHEMERIS_TYPE": 0, "CLASSIFICATION_TYPE": "U", "NORAD_CAT_ID": 29268, "ELEMENT_SET_NO": 999, "REV_AT_EPOCH": 3353, "BSTAR": 0.0001550851, "MEAN_MOTION_DOT": 7.77e-06, "MEAN_MOTION_DDOT": 0}, "tle": {"line1": "1 29268U 06031A   25342.26927888  .00000777  00000+0  15509-3 0  9996", "line2": "2 29268  97.8270 170.9604 0013693 323.9849  89.9798 14.64488035 33536"}}, "geometry": {"type": "Point", "coordinates": [-18.071930008582896, -49.66855786324762]}}, {"type": "Feature", "properties": {"norad_id": 29709, "name": "LAPAN-TUBSAT", "group": "resource", "lat": -27.846352379001743, "lon": 148.31863972579933, "alt_km": 622.3149368085114, "timestamp": "2025-12-08T13:49:31.449809+00:00", "meta": {"OBJECT_NAME": "LAPAN-TUBSAT", "OBJECT_ID": "2007-001A", "EPOCH": "2025-12-08T06:25:38.720064", "MEAN_MOTION": 14.85660628, "ECCENTRICITY": 0.00136481, "INCLINATION": 98.1253, "RA_OF_ASC_NODE": 332.3325, "ARG_OF_PERICENTER": 87.5653, "MEAN_ANOMALY": 272.7124, "EPHEMERIS_TYPE": 0, "CLASSIFICATION_TYPE": "U", "NORAD_CAT_ID": 29709, "ELEMENT_SET_NO": 999, "REV_AT_EPOCH": 2280, "BSTAR": 0.00015479269, "MEAN_MOTION_DOT": 1.286e-05, "MEAN_MOTION_DDOT": 0}, "tle": {"line1": "1 29709U 07001A   25342.26780926  .00001286  00000+0  15479-3 0  9996", "line2": "2 29709  98.1253 332.3325 0013648  87.5653 272.7124 14.85660628 22807"}}, "geometry": {"type": "Point", "coordinates": [148.31863972579933, -27.846352379001743]}}, {"type": "Feature", "properties": {"norad_id": 31113, "name": "HAIYANG-1B", "group": "resource", "lat": -11.951937898830474, "lon": 145.24876249624006, "alt_km": 801.0787826800024, "timestamp": "2025-12-08T13:49:31.449820+00:00", "meta": {"OBJECT_NAME": "HAIYANG-1B", "OBJECT_ID": "2007-010A", "EPOCH": "2025-12-08T04:32:28.973472", "MEAN_MOTION": 14.30962551, "ECCENTRICITY": 0.00144438, "INCLINATION": 98.3309, "RA_OF_ASC_NODE": 326.6554, "ARG_OF_PERICENTER": 50.6375, "MEAN_ANOMALY": 309.6086, "EPHEMERIS_TYPE": 0, "CLASSIFICATION_TYPE": "U", "NORAD_CAT_ID": 31113, "ELEMENT_SET_NO": 999, "REV_AT_EPOCH": 97331, "BSTAR": 9.3462149e-05, "MEAN_MOTION_DOT": 2.04e-06, "MEAN_MOTION_DDOT": 0}, "tle": {"line1": "1 31113U 07010A   25342.18922423  .00000204  00000+0  93462-4 0  9997", "line2": "2 31113  98.3309 326.6554 0014443  50.6375 309.6086 14.30962551973317"}}, "geometry": {"type": "Point", "coordinates": [145.24876249624006, -11.951937898830474]}}, {"type": "Feature", "properties": {"norad_id": 31598, "name": "COSMO-SKYMED 1", "group": "resource", "lat": 13.021760950070004, "lon": 166.1119259603797, "alt_km": 581.0521439746071, "timestamp": "2025-12-08T13:49:31.449830+00:00", "meta": {"OBJECT_NAME": "COSMO-SKYMED 1", "OBJECT_ID": "2007-023A", "EPOCH": "2025-12-08T05:44:20.076000", "MEAN_MOTION": 14.95712558, "ECCENTRICITY": 0.00010648, "INCLINATION": 97.8834, "RA_OF_ASC_NODE": 167.6093, "ARG_OF_PERICENTER": 80.8262, "MEAN_ANOMALY": 279.3079, "EPHEMERIS_TYPE": 0, "CLASSIFICATION_TYPE": "U", "NORAD_CAT_ID": 31598, "ELEMENT_SET_NO": 999, "REV_AT_EPOCH": 123, "BSTAR": 0.00046850266, "MEAN_MOTION_DOT": 5.159e-05, "MEAN_MOTION_DDOT": 0}, "tle": {"line1": "1 31598U 07023A   25342.23912125  .00005159  00000+0  46850-3 0  9994", "line2": "2 31598  97.8834 167.6093 0001064  80.8262 279.3079 14.95712558  1236"}}, "geometry": {"type": "Point", "coordinates": [166.1119259603797, 13.021760950070004]}}, {"type": "Feature", "properties": {"norad_id": 31698, "name": "TERRASAR-X", "group": "resource", "lat": 38.41070706850522, "lon": -17.93472356513479, "alt_km": 504.76315034574054, "timestamp": "2025-12-08T13:49:31.449841+00:00", "meta": {"OBJECT_NAME": "TERRASAR-X", "OBJECT_ID": "2007-026A", "EPOCH": "2025-12-07T13:56:33.832032", "MEAN_MOTION": 15.19154381, "ECCENTRICITY": 0.0001715, "INCLINATION": 97.445, "RA_OF_ASC_NODE": 347.036, "ARG_OF_PERICENTER": 88.3312, "MEAN_ANOMALY": 271.8119, "EPHEMERIS_TYPE": 0, "CLASSIFICATION_TYPE": "U", "NORAD_CAT_ID": 31698, "ELEMENT_SET_NO": 999, "REV_AT_EPOCH": 2413, "BSTAR": 0.0001437554, "MEAN_MOTION_DOT": 2.953e-05, "MEAN_MOTION_DDOT": 0}, "tle": {"line1": "1 31698U 07026A   25341.58094713  .00002953  00000+0  14376-3 0  9996", "line2": "2 31698  97.4450 347.0360 0001715  88.3312 271.8119 15.19154381 24137"}}, "geometry": {"type": "Point", "coordinates": [-17.93472356513479, 38.41070706850522]}}, {"type": "Feature", "properties": {"norad_id": 32060, "name": "WORLDVIEW-1 (WV-1)", "group": "resource", "lat": -41.53027214296956, "lon": 106.7119716355578, "alt_km": 499.1209847869741, "timestamp": "2025-12-08T13:49:31.449851+00:00", "meta": {"OBJECT_NAME": "WORLDVIEW-1 (WV-1)", "OBJECT_ID": "2007-041A", "EPOCH": "2025-12-08T07:42:29.723904", "MEAN_MOTION": 15.24578155, "ECCENTRICITY": 7.846e-05, "INCLINATION": 97.3843, "RA_OF_ASC_NODE": 99.8651, "ARG_OF_PERICENTER": 102.3304, "MEAN_ANOMALY": 257.8022, "EPHEMERIS_TYPE": 0, "CLASSIFICATION_TYPE": "U", "NORAD_CAT_ID": 32060, "ELEMENT_SET_NO": 999, "REV_AT_EPOCH": 1380, "BSTAR": 0.00043298177, "MEAN_MOTION_DOT": 0.00010604, "MEAN_MOTION_DDOT": 0}, "tle": {"line1": "1 32060U 07041A   25342.32117736  .00010604  00000+0  43298-3 0  9998", "line2": "2 32060  97.3843  99.8651 0000784 102.3304 257.8022 15.24578155 13808"}}, "geometry": {"type": "Point", "coordinates": [106.7119716355578, -41.53027214296956]}}]}